[{"OBJECT_NAME":"AMC-3","OBJECT_ID":"1997-050A","EPOCH":"2026-04-05T08:39:38.507904","MEAN_MOTION":1.00271324,"ECCENTRICITY":0.0003288,"INCLINATION":7.9685,"RA_OF_ASC_NODE":64.9035,"ARG_OF_PERICENTER":309.8504,"MEAN_ANOMALY":236.8131,"EPHEMERIS_TYPE":0,"CLASSIFICATION_TYPE":"U","NORAD_CAT_ID":24936,"ELEMENT_SET_NO":999,"REV_AT_EPOCH":5170,"BSTAR":0,"MEAN_MOTION_DOT":-2.58e-6,"MEAN_MOTION_DDOT":0},{"OBJECT_NAME":"NSS-11","OBJECT_ID":"2000-059A","EPOCH":"2026-04-05T17:00:19.202112","MEAN_MOTION":1.00272028,"ECCENTRICITY":0.0003163,"INCLINATION":1.9394,"RA_OF_ASC_NODE":82.2263,"ARG_OF_PERICENTER":297.4735,"MEAN_ANOMALY":245.3815,"EPHEMERIS_TYPE":0,"CLASSIFICATION_TYPE":"U","NORAD_CAT_ID":26554,"ELEMENT_SET_NO":999,"REV_AT_EPOCH":4056,"BSTAR":0,"MEAN_MOTION_DOT":2.7e-7,"MEAN_MOTION_DDOT":0},{"OBJECT_NAME":"AMC-6","OBJECT_ID":"2000-067A","EPOCH":"2026-04-05T17:14:17.861856","MEAN_MOTION":1.00270904,"ECCENTRICITY":0.0003704,"INCLINATION":0.0638,"RA_OF_ASC_NODE":59.5402,"ARG_OF_PERICENTER":329.0068,"MEAN_ANOMALY":288.9863,"EPHEMERIS_TYPE":0,"CLASSIFICATION_TYPE":"U","NORAD_CAT_ID":26580,"ELEMENT_SET_NO":999,"REV_AT_EPOCH":9316,"BSTAR":0,"MEAN_MOTION_DOT":9.0e-7,"MEAN_MOTION_DDOT":0},{"OBJECT_NAME":"AMC-11","OBJECT_ID":"2004-017A","EPOCH":"2026-04-05T15:38:25.411200","MEAN_MOTION":1.00271429,"ECCENTRICITY":0.0003328,"INCLINATION":0.1228,"RA_OF_ASC_NODE":80.3228,"ARG_OF_PERICENTER":303.3609,"MEAN_ANOMALY":293.7736,"EPHEMERIS_TYPE":0,"CLASSIFICATION_TYPE":"U","NORAD_CAT_ID":28252,"ELEMENT_SET_NO":999,"REV_AT_EPOCH":8013,"BSTAR":0,"MEAN_MOTION_DOT":-4.8e-7,"MEAN_MOTION_DDOT":0},{"OBJECT_NAME":"AMC-15","OBJECT_ID":"2004-041A","EPOCH":"2026-04-05T13:57:29.110752","MEAN_MOTION":1.00272394,"ECCENTRICITY":0.0002247,"INCLINATION":0.0517,"RA_OF_ASC_NODE":53.0955,"ARG_OF_PERICENTER":325.3385,"MEAN_ANOMALY":279.7748,"EPHEMERIS_TYPE":0,"CLASSIFICATION_TYPE":"U","NORAD_CAT_ID":28446,"ELEMENT_SET_NO":999,"REV_AT_EPOCH":7857,"BSTAR":0,"MEAN_MOTION_DOT":-8.7e-7,"MEAN_MOTION_DDOT":0},{"OBJECT_NAME":"NSS-10","OBJECT_ID":"2005-003A","EPOCH":"2026-04-05T19:24:42.816096","MEAN_MOTION":1.00271647,"ECCENTRICITY":0.0003241,"INCLINATION":6.269,"RA_OF_ASC_NODE":71.3159,"ARG_OF_PERICENTER":304.8528,"MEAN_ANOMALY":71.6648,"EPHEMERIS_TYPE":0,"CLASSIFICATION_TYPE":"U","NORAD_CAT_ID":28526,"ELEMENT_SET_NO":999,"REV_AT_EPOCH":5243,"BSTAR":0,"MEAN_MOTION_DOT":-2.48e-6,"MEAN_MOTION_DDOT":0},{"OBJECT_NAME":"ASTRA 1KR","OBJECT_ID":"2006-012A","EPOCH":"2026-04-05T19:40:48.773280","MEAN_MOTION":1.00271231,"ECCENTRICITY":0.0003592,"INCLINATION":0.2868,"RA_OF_ASC_NODE":82.1772,"ARG_OF_PERICENTER":291.7155,"MEAN_ANOMALY":134.4134,"EPHEMERIS_TYPE":0,"CLASSIFICATION_TYPE":"U","NORAD_CAT_ID":29055,"ELEMENT_SET_NO":999,"REV_AT_EPOCH":4497,"BSTAR":0,"MEAN_MOTION_DOT":1.21e-6,"MEAN_MOTION_DDOT":0},{"OBJECT_NAME":"ASTRA 1L","OBJECT_ID":"2007-016A","EPOCH":"2026-04-05T19:28:27.456960","MEAN_MOTION":1.00272581,"ECCENTRICITY":0.0004431,"INCLINATION":1.1346,"RA_OF_ASC_NODE":82.0762,"ARG_OF_PERICENTER":312.4502,"MEAN_ANOMALY":67.1749,"EPHEMERIS_TYPE":0,"CLASSIFICATION_TYPE":"U","NORAD_CAT_ID":31306,"ELEMENT_SET_NO":999,"REV_AT_EPOCH":4426,"BSTAR":0,"MEAN_MOTION_DOT":-1.82e-6,"MEAN_MOTION_DDOT":0},{"OBJECT_NAME":"ASTRA 4A","OBJECT_ID":"2007-057A","EPOCH":"2026-04-05T08:04:38.574048","MEAN_MOTION":1.00271116,"ECCENTRICITY":0.00026813,"INCLINATION":0.0517,"RA_OF_ASC_NODE":58.7195,"ARG_OF_PERICENTER":326.6568,"MEAN_ANOMALY":294.2255,"EPHEMERIS_TYPE":0,"CLASSIFICATION_TYPE":"U","NORAD_CAT_ID":32299,"ELEMENT_SET_NO":999,"REV_AT_EPOCH":5091,"BSTAR":0,"MEAN_MOTION_DOT":3.4e-7,"MEAN_MOTION_DDOT":0},{"OBJECT_NAME":"ASTRA 1M","OBJECT_ID":"2008-057A","EPOCH":"2026-04-05T19:40:56.260704","MEAN_MOTION":1.00272778,"ECCENTRICITY":0.0003052,"INCLINATION":0.1112,"RA_OF_ASC_NODE":75.4493,"ARG_OF_PERICENTER":357.1367,"MEAN_ANOMALY":76.1269,"EPHEMERIS_TYPE":0,"CLASSIFICATION_TYPE":"U","NORAD_CAT_ID":33436,"ELEMENT_SET_NO":999,"REV_AT_EPOCH":4501,"BSTAR":0,"MEAN_MOTION_DOT":1.23e-6,"MEAN_MOTION_DDOT":0},{"OBJECT_NAME":"NSS-9","OBJECT_ID":"2009-008A","EPOCH":"2026-04-05T18:45:01.622592","MEAN_MOTION":1.00272769,"ECCENTRICITY":0.0002227,"INCLINATION":1.0743,"RA_OF_ASC_NODE":83.2906,"ARG_OF_PERICENTER":286.6065,"MEAN_ANOMALY":288.4977,"EPHEMERIS_TYPE":0,"CLASSIFICATION_TYPE":"U","NORAD_CAT_ID":33749,"ELEMENT_SET_NO":999,"REV_AT_EPOCH":6279,"BSTAR":0,"MEAN_MOTION_DOT":7.4e-7,"MEAN_MOTION_DDOT":0},{"OBJECT_NAME":"SES-7 (PROTOSTAR 2)","OBJECT_ID":"2009-027A","EPOCH":"2026-04-05T20:06:17.897760","MEAN_MOTION":1.00271979,"ECCENTRICITY":0.0001864,"INCLINATION":0.0927,"RA_OF_ASC_NODE":78.5575,"ARG_OF_PERICENTER":245.5108,"MEAN_ANOMALY":279.8884,"EPHEMERIS_TYPE":0,"CLASSIFICATION_TYPE":"U","NORAD_CAT_ID":34941,"ELEMENT_SET_NO":999,"REV_AT_EPOCH":6190,"BSTAR":0,"MEAN_MOTION_DOT":-3.43e-6,"MEAN_MOTION_DDOT":0},{"OBJECT_NAME":"NSS-12","OBJECT_ID":"2009-058A","EPOCH":"2026-04-05T19:29:53.734272","MEAN_MOTION":1.00271943,"ECCENTRICITY":0.0005015,"INCLINATION":0.0757,"RA_OF_ASC_NODE":62.6365,"ARG_OF_PERICENTER":298.1814,"MEAN_ANOMALY":182.7617,"EPHEMERIS_TYPE":0,"CLASSIFICATION_TYPE":"U","NORAD_CAT_ID":36032,"ELEMENT_SET_NO":999,"REV_AT_EPOCH":6019,"BSTAR":0,"MEAN_MOTION_DOT":7.3e-7,"MEAN_MOTION_DDOT":0},{"OBJECT_NAME":"SES-1","OBJECT_ID":"2010-016A","EPOCH":"2026-04-05T15:41:17.635776","MEAN_MOTION":1.00272896,"ECCENTRICITY":0.0002639,"INCLINATION":0.0264,"RA_OF_ASC_NODE":285.1662,"ARG_OF_PERICENTER":93.2437,"MEAN_ANOMALY":309.86,"EPHEMERIS_TYPE":0,"CLASSIFICATION_TYPE":"U","NORAD_CAT_ID":36516,"ELEMENT_SET_NO":999,"REV_AT_EPOCH":5830,"BSTAR":0,"MEAN_MOTION_DOT":-1.13e-6,"MEAN_MOTION_DDOT":0},{"OBJECT_NAME":"ASTRA 3B","OBJECT_ID":"2010-021A","EPOCH":"2026-04-05T19:42:11.140128","MEAN_MOTION":1.0027303,"ECCENTRICITY":0.0003614,"INCLINATION":1.2823,"RA_OF_ASC_NODE":84.4125,"ARG_OF_PERICENTER":307.6475,"MEAN_ANOMALY":121.0899,"EPHEMERIS_TYPE":0,"CLASSIFICATION_TYPE":"U","NORAD_CAT_ID":36581,"ELEMENT_SET_NO":999,"REV_AT_EPOCH":5814,"BSTAR":0,"MEAN_MOTION_DOT":1.39e-6,"MEAN_MOTION_DDOT":0},{"OBJECT_NAME":"SES-3","OBJECT_ID":"2011-035A","EPOCH":"2026-04-05T15:40:40.195200","MEAN_MOTION":1.00272355,"ECCENTRICITY":0.000343,"INCLINATION":1.1389,"RA_OF_ASC_NODE":83.8382,"ARG_OF_PERICENTER":297.1989,"MEAN_ANOMALY":305.0777,"EPHEMERIS_TYPE":0,"CLASSIFICATION_TYPE":"U","NORAD_CAT_ID":37748,"ELEMENT_SET_NO":999,"REV_AT_EPOCH":5386,"BSTAR":0,"MEAN_MOTION_DOT":-1.0e-6,"MEAN_MOTION_DDOT":0},{"OBJECT_NAME":"ASTRA 1N","OBJECT_ID":"2011-041A","EPOCH":"2026-04-05T19:40:56.260704","MEAN_MOTION":1.00270379,"ECCENTRICITY":0.0005147,"INCLINATION":0.0897,"RA_OF_ASC_NODE":43.5139,"ARG_OF_PERICENTER":359.5605,"MEAN_ANOMALY":105.4491,"EPHEMERIS_TYPE":0,"CLASSIFICATION_TYPE":"U","NORAD_CAT_ID":37775,"ELEMENT_SET_NO":999,"REV_AT_EPOCH":4380,"BSTAR":0,"MEAN_MOTION_DOT":1.21e-6,"MEAN_MOTION_DDOT":0}]
