AMC-3                   
1 24936U 97050A   26095.36086236 -.00000258  00000+0  00000+0 0  9995
2 24936   7.9685  64.9035 0003288 309.8504 236.8131  1.00271324 51705
NSS-11                  
1 26554U 00059A   26095.70855558  .00000027  00000+0  00000+0 0  9998
2 26554   1.9394  82.2263 0003163 297.4735 245.3815  1.00272028 40568
AMC-6                   
1 26580U 00067A   26095.71826229  .00000090  00000+0  00000+0 0  9990
2 26580   0.0638  59.5402 0003704 329.0068 288.9863  1.00270904 93163
AMC-11                  
1 28252U 04017A   26095.65168300 -.00000048  00000+0  00000+0 0  9993
2 28252   0.1228  80.3228 0003328 303.3609 293.7736  1.00271429 80132
AMC-15                  
1 28446U 04041A   26095.58158693 -.00000087  00000+0  00000+0 0  9994
2 28446   0.0517  53.0955 0002247 325.3385 279.7748  1.00272394 78579
NSS-10                  
1 28526U 05003A   26095.80882889 -.00000248  00000+0  00000+0 0  9997
2 28526   6.2690  71.3159 0003241 304.8528  71.6648  1.00271647 52438
ASTRA 1KR               
1 29055U 06012A   26095.82000895  .00000121  00000+0  00000+0 0  9996
2 29055   0.2868  82.1772 0003592 291.7155 134.4134  1.00271231 44974
ASTRA 1L                
1 31306U 07016A   26095.81142890 -.00000182  00000+0  00000+0 0  9992
2 31306   1.1346  82.0762 0004431 312.4502  67.1749  1.00272581 44260
ASTRA 4A                
1 32299U 07057A   26095.33655757  .00000034  00000+0  00000+0 0  9992
2 32299   0.0517  58.7195 0002681 326.6568 294.2255  1.00271116 50911
ASTRA 1M                
1 33436U 08057A   26095.82009561  .00000123  00000+0  00000+0 0  9996
2 33436   0.1112  75.4493 0003052 357.1367  76.1269  1.00272778 45015
NSS-9                   
1 33749U 09008A   26095.78126878  .00000074  00000+0  00000+0 0  9991
2 33749   1.0743  83.2906 0002227 286.6065 288.4977  1.00272769 62790
SES-7 (PROTOSTAR 2)     
1 34941U 09027A   26095.83770715 -.00000343  00000+0  00000+0 0  9998
2 34941   0.0927  78.5575 0001864 245.5108 279.8884  1.00271979 61900
NSS-12                  
1 36032U 09058A   26095.81242748  .00000073  00000+0  00000+0 0  9992
2 36032   0.0757  62.6365 0005015 298.1814 182.7617  1.00271943 60192
SES-1                   
1 36516U 10016A   26095.65367634 -.00000113  00000+0  00000+0 0  9995
2 36516   0.0264 285.1662 0002639  93.2437 309.8600  1.00272896 58300
ASTRA 3B                
1 36581U 10021A   26095.82096227  .00000139  00000+0  00000+0 0  9996
2 36581   1.2823  84.4125 0003614 307.6475 121.0899  1.00273030 58145
SES-3                   
1 37748U 11035A   26095.65324300 -.00000100  00000+0  00000+0 0  9994
2 37748   1.1389  83.8382 0003430 297.1989 305.0777  1.00272355 53866
ASTRA 1N                
1 37775U 11041A   26095.82009561  .00000121  00000+0  00000+0 0  9991
2 37775   0.0897  43.5139 0005147 359.5605 105.4491  1.00270379 43808
